NORAD_CAT_ID,OBJECT_NAME,OBJECT_TYPE,EPOCH,MEAN_MOTION,ECCENTRICITY,INCLINATION,RA_OF_ASC_NODE,ARG_OF_PERICENTER,MEAN_ANOMALY,BSTAR,MEAN_MOTION_DOT,MEAN_MOTION_DDOT,TLE_LINE0,TLE_LINE1,TLE_LINE2,SEMIMAJOR_AXIS,PERIOD,APOGEE,PERIGEE,DECAYED
55773.0,STARLINK-5833,PAYLOAD,2023-06-11 22:00:00,15.54235367,0.0003403,69.9993,233.8595,273.1925,232.0017,-0.014981,-0.00892685,0.0,0 STARLINK-5833,1 55773U 23028AJ  23162.91667824 -.00892685  00000-0 -14981-1 0  9993,2 55773  69.9993 233.8595 0003403 273.1925 232.0017 15.54235367  1308,6782.513,92.65,406.686,402.07,0.0
55773.0,STARLINK-5833,PAYLOAD,2023-06-12 06:00:00,15.53635561,0.0003354,69.9999,232.9448,268.53,300.7884,-0.016671,-0.00978231,0.0,0 STARLINK-5833,1 55773U 23028AJ  23163.25001157 -.00978231  00000-0 -16671-1 0  9992,2 55773  69.9999 232.9448 0003354 268.5300 300.7884 15.53635561 16435,6784.259,92.686,408.399,403.848,0.0
55773.0,STARLINK-5833,PAYLOAD,2023-06-12 14:00:01,15.52924279,0.0003388,69.9998,232.0305,274.3296,358.4331,-0.015169,-0.00864316,0.0,0 STARLINK-5833,1 55773U 23028AJ  23163.58335648 -.00864316  00000-0 -15169-1 0  9992,2 55773  69.9998 232.0305 0003388 274.3296 358.4331 15.52924279  1306,6786.33,92.728,410.494,405.896,0.0
55773.0,STARLINK-5833,PAYLOAD,2023-06-12 22:00:00,15.52269112,0.0003413,69.9995,231.117,271.3944,63.891,-0.015805,-0.00878142,0.0,0 STARLINK-5833,1 55773U 23028AJ  23163.91667824 -.00878142  00000-0 -15805-1 0  9992,2 55773  69.9995 231.1170 0003413 271.3944  63.8910 15.52269112 16538,6788.24,92.767,412.421,407.788,0.0
55773.0,STARLINK-5833,PAYLOAD,2023-06-13 00:00:00,15.52075773,0.0003446,69.9996,230.889,270.9148,169.8984,-0.014586,-0.00810666,0.0,0 STARLINK-5833,1 55773U 23028AJ  23164.00001157 -.00810666  00000-0 -14586-1 0  9996,2 55773  69.9996 230.8890 0003446 270.9148 169.8984 15.52075773  1306,6788.803,92.779,413.008,408.329,0.0
55773.0,STARLINK-5833,PAYLOAD,2023-06-13 06:00:02,15.51507345,0.0003509,69.9999,230.2048,268.1939,128.9587,-0.0073554,-0.0041458,0.0,0 STARLINK-5833,1 55773U 23028AJ  23164.25002315 -.00414580  00000-0 -73554-2 0  9996,2 55773  69.9999 230.2048 0003509 268.1939 128.9587 15.51507345 16580,6790.461,92.813,414.709,409.944,0.0
55773.0,STARLINK-5833,PAYLOAD,2023-06-13 14:00:01,15.51199339,0.000357,70.0,229.2931,275.2518,182.9051,0.00080707,0.00047486,0.0,0 STARLINK-5833,1 55773U 23028AJ  23164.58334491  .00047486  00000-0  80707-3 0  9999,2 55773  70.0000 229.2931 0003570 275.2518 182.9051 15.51199339 16648,6791.36,92.831,415.65,410.801,0.0
55773.0,STARLINK-5833,PAYLOAD,2023-06-13 22:00:00,15.51208871,0.000357,69.9998,228.3817,271.2,247.867,0.0001376,7.922e-05,0.0,0 STARLINK-5833,1 55773U 23028AJ  23164.91667824  .00007922  00000-0  13760-3 0  9991,2 55773  69.9998 228.3817 0003570 271.2000 247.8670 15.51208871  1303,6791.332,92.831,415.622,410.773,0.0
55773.0,STARLINK-5833,PAYLOAD,2023-06-14 06:00:00,15.51254566,0.000358,70.0,227.4707,269.1387,310.8154,-0.00072991,-0.00042856,0.0,0 STARLINK-5833,1 55773U 23028AJ  23165.25001157 -.00042856  00000-0 -72991-3 0  9998,2 55773  70.0000 227.4707 0003580 269.1387 310.8154 15.51254566 16747,6791.199,92.828,415.495,410.633,0.0
55773.0,STARLINK-5833,PAYLOAD,2023-06-14 14:00:01,15.51205761,0.0003571,69.9997,226.5593,276.0427,4.8482,0.00079567,0.0004682,0.0,0 STARLINK-5833,1 55773U 23028AJ  23165.58334491  .00046820  00000-0  79567-3 0  9993,2 55773  69.9997 226.5593 0003571 276.0427   4.8482 15.51205761  1307,6791.341,92.831,415.632,410.781,0.0
55773.0,STARLINK-5833,PAYLOAD,2023-06-14 22:00:00,15.51304763,0.0003618,69.9996,225.6479,271.8724,69.9194,-0.0048783,-0.00277726,0.0,0 STARLINK-5833,1 55773U 23028AJ  23165.91667824 -.00277726  00000-0 -48783-2 0  9997,2 55773  69.9996 225.6479 0003618 271.8724  69.9194 15.51304763  1308,6791.053,92.825,415.375,410.461,0.0
55773.0,STARLINK-5833,PAYLOAD,2023-06-15 06:00:00,15.51300612,0.0003718,70.0001,224.7369,270.7943,131.8988,-0.018228,-0.0098273,0.0,0 STARLINK-5833,1 55773U 23028AJ  23166.25001157 -.00982730  00000-0 -18228-1 0  9994,2 55773  70.0001 224.7369 0003718 270.7943 131.8988 15.51300612 16897,6791.065,92.825,415.455,410.405,0.0
55773.0,STARLINK-5833,PAYLOAD,2023-06-15 14:00:01,15.50589586,0.0003556,69.9999,223.8257,275.7795,187.4916,-0.016743,-0.00876082,0.0,0 STARLINK-5833,1 55773U 23028AJ  23166.58334491 -.00876082  00000-0 -16743-1 0  9992,2 55773  69.9999 223.8257 0003556 275.7795 187.4916 15.50589586  1302,6793.141,92.868,417.421,412.59,0.0
55773.0,STARLINK-5833,PAYLOAD,2023-06-15 20:00:01,15.50115248,0.0003397,69.9995,223.1432,270.6143,147.5587,-0.017828,-0.00926059,0.0,0 STARLINK-5833,1 55773U 23028AJ  23166.83334491 -.00926059  00000-0 -17828-1 0  9995,2 55773  69.9995 223.1432 0003397 270.6143 147.5587 15.50115248 16981,6794.526,92.896,418.699,414.083,0.0
55773.0,STARLINK-5833,PAYLOAD,2023-06-16 14:00:01,15.48637163,0.0003372,69.9996,221.0982,273.8501,6.3935,-0.018097,-0.00882946,0.0,0 STARLINK-5833,1 55773U 23028AJ  23167.58334491 -.00882946  00000-0 -18097-1 0  9993,2 55773  69.9996 221.0982 0003372 273.8501   6.3935 15.48637163  1306,6798.849,92.985,423.006,418.421,0.0
55773.0,STARLINK-5833,PAYLOAD,2023-06-16 22:00:00,15.47958057,0.0003414,69.9993,220.191,270.3583,67.3221,-0.017744,-0.00848545,0.0,0 STARLINK-5833,1 55773U 23028AJ  23167.91667824 -.00848545  00000-0 -17744-1 0  9994,2 55773  69.9993 220.1910 0003414 270.3583  67.3221 15.47958057 17155,6800.837,93.026,425.024,420.38,0.0
55773.0,STARLINK-5833,PAYLOAD,2023-06-17 07:25:07,15.48813028,0.0003145,69.9975,219.1279,253.436,106.6479,-0.0044975,-0.0023569,0.0,0 STARLINK-5833,1 55773U 23028AJ  23168.30910993 -.00235690  00000-0 -44975-2 0  9994,2 55773  69.9975 219.1279 0003145 253.4360 106.6479 15.48813028 17226,6798.334,92.974,422.337,418.061,0.0
55773.0,STARLINK-5833,PAYLOAD,2023-06-17 13:37:03,15.48854407,0.0005291,69.9976,218.4255,301.7987,58.2682,-0.0039176,-0.00206478,0.0,0 STARLINK-5833,1 55773U 23028AJ  23168.56740531 -.00206478  00000-0 -39176-2 0  9990,2 55773  69.9976 218.4255 0005291 301.7987  58.2682 15.48854407 17267,6798.213,92.972,423.675,416.481,0.0
55773.0,STARLINK-5833,PAYLOAD,2023-06-17 14:00:01,15.46678231,0.0003347,69.9988,218.3791,277.079,173.0967,-0.019313,-0.00892048,0.0,0 STARLINK-5833,1 55773U 23028AJ  23168.58334491 -.00892048  00000-0 -19313-1 0  9990,2 55773  69.9988 218.3791 0003347 277.0790 173.0967 15.46678231 17260,6804.588,93.103,428.731,424.176,0.0
55773.0,STARLINK-5833,PAYLOAD,2023-06-18 06:00:00,15.4540481,0.0003392,69.9991,216.5709,268.3643,291.1826,-0.021688,-0.00953286,0.0,0 STARLINK-5833,1 55773U 23028AJ  23169.25001157 -.00953286  00000-0 -21688-1 0  9995,2 55773  69.9991 216.5709 0003392 268.3643 291.1826 15.45404810 17369,6808.326,93.179,432.5,427.881,0.0
55773.0,STARLINK-5833,PAYLOAD,2023-06-18 12:55:14,15.46630029,0.0004296,69.9971,215.7937,261.6915,98.3782,-0.005377,-0.00260425,0.0,0 STARLINK-5833,1 55773U 23028AJ  23169.53836224 -.00260425  00000-0 -53770-2 0  9991,2 55773  69.9971 215.7937 0004296 261.6915  98.3782 15.46630029 17411,6804.73,93.106,429.518,423.671,0.0
55773.0,STARLINK-5833,PAYLOAD,2023-06-18 22:00:00,15.44043968,0.0003537,69.9985,214.7658,267.2465,38.5604,-0.020152,-0.00842555,0.0,0 STARLINK-5833,1 55773U 23028AJ  23169.91667824 -.00842555  00000-0 -20152-1 0  9998,2 55773  69.9985 214.7658 0003537 267.2465  38.5604 15.44043968 17466,6812.326,93.262,436.6,431.781,0.0
55773.0,STARLINK-5833,PAYLOAD,2023-06-19 12:00:00,15.42913226,0.0003591,69.9987,213.1893,273.7839,32.4204,-0.021424,-0.00871767,0.0,0 STARLINK-5833,1 55773U 23028AJ  23170.50001157 -.00871767  00000-0 -21424-1 0  9996,2 55773  69.9987 213.1893 0003591 273.7839  32.4204 15.42913226 17559,6815.654,93.33,439.966,435.071,0.0
55773.0,STARLINK-5833,PAYLOAD,2023-06-19 12:14:48,15.44665848,0.0004475,69.9961,213.1641,271.3373,88.7297,-0.0059242,-0.00268004,0.0,0 STARLINK-5833,1 55773U 23028AJ  23170.51028896 -.00268004  00000-0 -59242-2 0  9990,2 55773  69.9961 213.1641 0004475 271.3373  88.7297 15.44665848 17564,6810.497,93.224,435.41,429.314,0.0
55773.0,STARLINK-5833,PAYLOAD,2023-06-19 22:00:00,15.42083774,0.0003471,69.9983,212.0649,270.9133,188.3994,-0.021407,-0.00848888,0.0,0 STARLINK-5833,1 55773U 23028AJ  23170.91667824 -.00848888  00000-0 -21407-1 0  9999,2 55773  69.9983 212.0649 0003471 270.9133 188.3994 15.42083774 17626,6818.097,93.38,442.329,437.596,0.0
55773.0,STARLINK-5833,PAYLOAD,2023-06-20 04:00:00,15.41667076,0.0003568,69.9984,211.391,269.8344,136.7301,-0.024988,-0.00966473,0.0,0 STARLINK-5833,1 55773U 23028AJ  23171.16667824 -.00966473  00000-0 -24988-1 0  9995,2 55773  69.9984 211.3910 0003568 269.8344 136.7301 15.41667076 17652,6819.326,93.405,443.624,438.758,0.0
55773.0,STARLINK-5833,PAYLOAD,2023-06-20 14:00:01,15.40818286,0.0003375,69.9982,210.2688,275.0973,282.6252,-0.023984,-0.00906764,0.0,0 STARLINK-5833,1 55773U 23028AJ  23171.58334491 -.00906764  00000-0 -23984-1 0  9994,2 55773  69.9982 210.2688 0003375 275.0973 282.6252 15.40818286  1304,6821.83,93.457,445.997,441.393,0.0
55773.0,STARLINK-5833,PAYLOAD,2023-06-20 22:00:00,15.40125667,0.0003369,69.9983,209.3721,268.5863,337.1895,-0.022734,-0.00844873,0.0,0 STARLINK-5833,1 55773U 23028AJ  23171.91667824 -.00844873  00000-0 -22734-1 0  9994,2 55773  69.9983 209.3721 0003369 268.5863 337.1895 15.40125667 17771,6823.875,93.499,448.039,443.441,0.0
55773.0,STARLINK-5833,PAYLOAD,2023-06-21 06:00:00,15.39527849,0.0003464,69.9983,208.4764,269.8646,23.1553,-0.026313,-0.0094939,0.0,0 STARLINK-5833,1 55773U 23028AJ  23172.25001157 -.00949390  00000-0 -26313-1 0  9990,2 55773  69.9983 208.4764 0003464 269.8646  23.1553 15.39527849 17822,6825.642,93.535,449.871,445.142,0.0
55773.0,STARLINK-5833,PAYLOAD,2023-06-21 14:00:01,15.38873406,0.0003522,69.998,207.5815,275.7041,63.7826,-0.026102,-0.00923947,0.0,0 STARLINK-5833,1 55773U 23028AJ  23172.58334491 -.00923947  00000-0 -26102-1 0  9992,2 55773  69.9980 207.5815 0003522 275.7041  63.7826 15.38873406  1307,6827.577,93.575,451.846,447.037,0.0
